[{"OBJECT_NAME":"HUANJING 1A (HJ-1A)","OBJECT_ID":"2008-041A","EPOCH":"2026-03-09T23:20:18.926592","MEAN_MOTION":14.83722198,"ECCENTRICITY":0.00205789,"INCLINATION":97.6638,"RA_OF_ASC_NODE":58.6973,"ARG_OF_PERICENTER":102.9318,"MEAN_ANOMALY":257.4197,"EPHEMERIS_TYPE":0,"CLASSIFICATION_TYPE":"U","NORAD_CAT_ID":33320,"ELEMENT_SET_NO":999,"REV_AT_EPOCH":94369,"BSTAR":0.0003142853,"MEAN_MOTION_DOT":2.557e-5,"MEAN_MOTION_DDOT":0},{"OBJECT_NAME":"PSLV DEB","OBJECT_ID":"2001-049CA","EPOCH":"2026-03-09T17:28:12.508320","MEAN_MOTION":14.85033154,"ECCENTRICITY":0.00154709,"INCLINATION":98.143,"RA_OF_ASC_NODE":123.0207,"ARG_OF_PERICENTER":62.0282,"MEAN_ANOMALY":58.2926,"EPHEMERIS_TYPE":0,"CLASSIFICATION_TYPE":"U","NORAD_CAT_ID":27130,"ELEMENT_SET_NO":999,"REV_AT_EPOCH":30363,"BSTAR":0.0002345935,"MEAN_MOTION_DOT":1.949e-5,"MEAN_MOTION_DDOT":0}]
